MALLIGYONG-1            
1 58400U 23179A   23350.60959594  .00005777  00000+0  25918-3 0  9992
2 58400  97.4258 235.0559 0015391 184.5362 175.5736 15.21482003  3802
